[
  {
    "OBJECT_NAME": "STARLINK-11352 [DTC]",
    "OBJECT_ID": "25024B",
    "EPOCH": "2025-11-11T00:12:09.979776",
    "MEAN_MOTION": 15.70977408,
    "ECCENTRICITY": 0.0002111,
    "INCLINATION": 42.9995,
    "RA_OF_ASC_NODE": 176.6035,
    "ARG_OF_PERICENTER": 286.1757,
    "MEAN_ANOMALY": 73.8878,
    "EPHEMERIS_TYPE": 0,
    "CLASSIFICATION_TYPE": "U",
    "NORAD_CAT_ID": 62880,
    "ELEMENT_SET_NO": 999,
    "REV_AT_EPOCH": 4480,
    "BSTAR": 0.0029893,
    "MEAN_MOTION_DOT": 0.0040472,
    "MEAN_MOTION_DDOT": 0.0,
    "TLE_LINE1": "1 62880U 25024B   25315.00844884  .00404720  00000+0  29893-2 0  9998",
    "TLE_LINE2": "2 62880  42.9995 176.6035 0002111 286.1757  73.8878 15.70977408 44808",
    "COMMENT": "Grouped by shell and plane from TLE"
  },
  {
    "OBJECT_NAME": "STARLINK-11382 [DTC]",
    "OBJECT_ID": "25024C",
    "EPOCH": "2025-11-11T00:42:44.721792",
    "MEAN_MOTION": 15.71197005,
    "ECCENTRICITY": 0.0003794,
    "INCLINATION": 42.9992,
    "RA_OF_ASC_NODE": 176.7746,
    "ARG_OF_PERICENTER": 270.1089,
    "MEAN_ANOMALY": 89.9344,
    "EPHEMERIS_TYPE": 0,
    "CLASSIFICATION_TYPE": "U",
    "NORAD_CAT_ID": 62881,
    "ELEMENT_SET_NO": 999,
    "REV_AT_EPOCH": 4480,
    "BSTAR": 0.0028629,
    "MEAN_MOTION_DOT": 0.00390534,
    "MEAN_MOTION_DDOT": 0.0,
    "TLE_LINE1": "1 62881U 25024C   25315.02968428  .00390534  00000+0  28629-2 0  9995",
    "TLE_LINE2": "2 62881  42.9992 176.7746 0003794 270.1089  89.9344 15.71197005 44809",
    "COMMENT": "Grouped by shell and plane from TLE"
  },
  {
    "OBJECT_NAME": "STARLINK-11432 [DTC]",
    "OBJECT_ID": "25024D",
    "EPOCH": "2025-11-11T00:58:01.758432",
    "MEAN_MOTION": 15.70880059,
    "ECCENTRICITY": 0.0002833,
    "INCLINATION": 42.9992,
    "RA_OF_ASC_NODE": 176.8598,
    "ARG_OF_PERICENTER": 243.7366,
    "MEAN_ANOMALY": 116.321,
    "EPHEMERIS_TYPE": 0,
    "CLASSIFICATION_TYPE": "U",
    "NORAD_CAT_ID": 62882,
    "ELEMENT_SET_NO": 999,
    "REV_AT_EPOCH": 4480,
    "BSTAR": 0.0010299,
    "MEAN_MOTION_DOT": 0.00134089,
    "MEAN_MOTION_DDOT": 0.0,
    "TLE_LINE1": "1 62882U 25024D   25315.04029813  .00134089  00000+0  10299-2 0  9999",
    "TLE_LINE2": "2 62882  42.9992 176.8598 0002833 243.7366 116.3210 15.70880059 44807",
    "COMMENT": "Grouped by shell and plane from TLE"
  },
  {
    "OBJECT_NAME": "STARLINK-11419 [DTC]",
    "OBJECT_ID": "25024E",
    "EPOCH": "2025-11-11T00:35:05.924832",
    "MEAN_MOTION": 15.70852248,
    "ECCENTRICITY": 0.0002688,
    "INCLINATION": 43.0001,
    "RA_OF_ASC_NODE": 176.731,
    "ARG_OF_PERICENTER": 256.0076,
    "MEAN_ANOMALY": 104.0493,
    "EPHEMERIS_TYPE": 0,
    "CLASSIFICATION_TYPE": "U",
    "NORAD_CAT_ID": 62883,
    "ELEMENT_SET_NO": 999,
    "REV_AT_EPOCH": 4480,
    "BSTAR": 0.0019816,
    "MEAN_MOTION_DOT": 0.00262145,
    "MEAN_MOTION_DDOT": 0.0,
    "TLE_LINE1": "1 62883U 25024E   25315.02437413  .00262145  00000+0  19816-2 0  9996",
    "TLE_LINE2": "2 62883  43.0001 176.7310 0002688 256.0076 104.0493 15.70852248 44801",
    "COMMENT": "Grouped by shell and plane from TLE"
  },
  {
    "OBJECT_NAME": "STARLINK-11437 [DTC]",
    "OBJECT_ID": "25024F",
    "EPOCH": "2025-11-10T23:18:49.625280",
    "MEAN_MOTION": 15.70981095,
    "ECCENTRICITY": 0.0003457,
    "INCLINATION": 42.9998,
    "RA_OF_ASC_NODE": 177.1988,
    "ARG_OF_PERICENTER": 261.7669,
    "MEAN_ANOMALY": 98.2807,
    "EPHEMERIS_TYPE": 0,
    "CLASSIFICATION_TYPE": "U",
    "NORAD_CAT_ID": 62884,
    "ELEMENT_SET_NO": 999,
    "REV_AT_EPOCH": 4479,
    "BSTAR": 0.0019658,
    "MEAN_MOTION_DOT": 0.00261457,
    "MEAN_MOTION_DDOT": 0.0,
    "TLE_LINE1": "1 62884U 25024F   25314.97140770  .00261457  00000+0  19658-2 0  9996",
    "TLE_LINE2": "2 62884  42.9998 177.1988 0003457 261.7669  98.2807 15.70981095 44791",
    "COMMENT": "Grouped by shell and plane from TLE"
  },
  {
    "OBJECT_NAME": "STARLINK-11442 [DTC]",
    "OBJECT_ID": "25024G",
    "EPOCH": "2025-11-10T23:56:52.775520",
    "MEAN_MOTION": 15.70884828,
    "ECCENTRICITY": 0.0001831,
    "INCLINATION": 42.9999,
    "RA_OF_ASC_NODE": 176.5165,
    "ARG_OF_PERICENTER": 272.6041,
    "MEAN_ANOMALY": 87.4617,
    "EPHEMERIS_TYPE": 0,
    "CLASSIFICATION_TYPE": "U",
    "NORAD_CAT_ID": 62885,
    "ELEMENT_SET_NO": 999,
    "REV_AT_EPOCH": 4480,
    "BSTAR": 0.0019259000000000001,
    "MEAN_MOTION_DOT": 0.00254875,
    "MEAN_MOTION_DDOT": 0.0,
    "TLE_LINE1": "1 62885U 25024G   25314.99783305  .00254875  00000+0  19259-2 0  9999",
    "TLE_LINE2": "2 62885  42.9999 176.5165 0001831 272.6041  87.4617 15.70884828 44809",
    "COMMENT": "Grouped by shell and plane from TLE"
  },
  {
    "OBJECT_NAME": "STARLINK-11365 [DTC]",
    "OBJECT_ID": "25024H",
    "EPOCH": "2025-11-11T00:04:31.284768",
    "MEAN_MOTION": 15.70962104,
    "ECCENTRICITY": 0.0001993,
    "INCLINATION": 42.9995,
    "RA_OF_ASC_NODE": 176.5589,
    "ARG_OF_PERICENTER": 278.2637,
    "MEAN_ANOMALY": 81.8004,
    "EPHEMERIS_TYPE": 0,
    "CLASSIFICATION_TYPE": "U",
    "NORAD_CAT_ID": 62886,
    "ELEMENT_SET_NO": 999,
    "REV_AT_EPOCH": 4480,
    "BSTAR": 0.0026688000000000003,
    "MEAN_MOTION_DOT": 0.00359039,
    "MEAN_MOTION_DDOT": 0.0,
    "TLE_LINE1": "1 62886U 25024H   25315.00313987  .00359039  00000+0  26688-2 0  9990",
    "TLE_LINE2": "2 62886  42.9995 176.5589 0001993 278.2637  81.8004 15.70962104 44800",
    "COMMENT": "Grouped by shell and plane from TLE"
  },
  {
    "OBJECT_NAME": "STARLINK-11436 [DTC]",
    "OBJECT_ID": "25024J",
    "EPOCH": "2025-11-11T01:59:01.849056",
    "MEAN_MOTION": 15.70871954,
    "ECCENTRICITY": 0.0001926,
    "INCLINATION": 42.9992,
    "RA_OF_ASC_NODE": 176.3033,
    "ARG_OF_PERICENTER": 10.9296,
    "MEAN_ANOMALY": 349.1613,
    "EPHEMERIS_TYPE": 0,
    "CLASSIFICATION_TYPE": "U",
    "NORAD_CAT_ID": 62887,
    "ELEMENT_SET_NO": 999,
    "REV_AT_EPOCH": 4481,
    "BSTAR": 0.0021113,
    "MEAN_MOTION_DOT": 0.00280166,
    "MEAN_MOTION_DDOT": 0.0,
    "TLE_LINE1": "1 62887U 25024J   25315.08266029  .00280166  00000+0  21113-2 0  9995",
    "TLE_LINE2": "2 62887  42.9992 176.3033 0001926  10.9296 349.1613 15.70871954 44817",
    "COMMENT": "Grouped by shell and plane from TLE"
  },
  {
    "OBJECT_NAME": "STARLINK-11438 [DTC]",
    "OBJECT_ID": "25024K",
    "EPOCH": "2025-11-10T16:28:02.160768",
    "MEAN_MOTION": 15.70875024,
    "ECCENTRICITY": 0.0003766,
    "INCLINATION": 42.9999,
    "RA_OF_ASC_NODE": 178.4797,
    "ARG_OF_PERICENTER": 288.8981,
    "MEAN_ANOMALY": 71.1478,
    "EPHEMERIS_TYPE": 0,
    "CLASSIFICATION_TYPE": "U",
    "NORAD_CAT_ID": 62888,
    "ELEMENT_SET_NO": 999,
    "REV_AT_EPOCH": 4475,
    "BSTAR": 0.0017881,
    "MEAN_MOTION_DOT": 0.00236008,
    "MEAN_MOTION_DDOT": 0.0,
    "TLE_LINE1": "1 62888U 25024K   25314.68613612  .00236008  00000+0  17881-2 0  9998",
    "TLE_LINE2": "2 62888  42.9999 178.4797 0003766 288.8981  71.1478 15.70875024 44752",
    "COMMENT": "Grouped by shell and plane from TLE"
  },
  {
    "OBJECT_NAME": "STARLINK-11391 [DTC]",
    "OBJECT_ID": "25024L",
    "EPOCH": "2025-11-11T00:19:49.181088",
    "MEAN_MOTION": 15.71121328,
    "ECCENTRICITY": 0.0001187,
    "INCLINATION": 42.9986,
    "RA_OF_ASC_NODE": 176.6415,
    "ARG_OF_PERICENTER": 278.0507,
    "MEAN_ANOMALY": 82.0226,
    "EPHEMERIS_TYPE": 0,
    "CLASSIFICATION_TYPE": "U",
    "NORAD_CAT_ID": 62889,
    "ELEMENT_SET_NO": 999,
    "REV_AT_EPOCH": 4480,
    "BSTAR": 0.0022066,
    "MEAN_MOTION_DOT": 0.00296509,
    "MEAN_MOTION_DDOT": 0.0,
    "TLE_LINE1": "1 62889U 25024L   25315.01376367  .00296509  00000+0  22066-2 0  9993",
    "TLE_LINE2": "2 62889  42.9986 176.6415 0001187 278.0507  82.0226 15.71121328 44806",
    "COMMENT": "Grouped by shell and plane from TLE"
  },
  {
    "OBJECT_NAME": "STARLINK-11431 [DTC]",
    "OBJECT_ID": "25024M",
    "EPOCH": "2025-11-10T23:49:25.109472",
    "MEAN_MOTION": 15.70882563,
    "ECCENTRICITY": 0.0001584,
    "INCLINATION": 43.0,
    "RA_OF_ASC_NODE": 177.3663,
    "ARG_OF_PERICENTER": 282.4684,
    "MEAN_ANOMALY": 77.6006,
    "EPHEMERIS_TYPE": 0,
    "CLASSIFICATION_TYPE": "U",
    "NORAD_CAT_ID": 62890,
    "ELEMENT_SET_NO": 999,
    "REV_AT_EPOCH": 4479,
    "BSTAR": 0.0019458000000000001,
    "MEAN_MOTION_DOT": 0.00257579,
    "MEAN_MOTION_DDOT": 0.0,
    "TLE_LINE1": "1 62890U 25024M   25314.99265173  .00257579  00000+0  19458-2 0  9998",
    "TLE_LINE2": "2 62890  43.0000 177.3663 0001584 282.4684  77.6006 15.70882563 44794",
    "COMMENT": "Grouped by shell and plane from TLE"
  },
  {
    "OBJECT_NAME": "STARLINK-11435 [DTC]",
    "OBJECT_ID": "25024N",
    "EPOCH": "2025-11-10T23:41:46.336704",
    "MEAN_MOTION": 15.70909187,
    "ECCENTRICITY": 0.0001788,
    "INCLINATION": 42.9984,
    "RA_OF_ASC_NODE": 177.3238,
    "ARG_OF_PERICENTER": 280.5058,
    "MEAN_ANOMALY": 79.5608,
    "EPHEMERIS_TYPE": 0,
    "CLASSIFICATION_TYPE": "U",
    "NORAD_CAT_ID": 62891,
    "ELEMENT_SET_NO": 999,
    "REV_AT_EPOCH": 4479,
    "BSTAR": 0.0020919,
    "MEAN_MOTION_DOT": 0.00277949,
    "MEAN_MOTION_DDOT": 0.0,
    "TLE_LINE1": "1 62891U 25024N   25314.98734186  .00277949  00000+0  20919-2 0  9990",
    "TLE_LINE2": "2 62891  42.9984 177.3238 0001788 280.5058  79.5608 15.70909187 44793",
    "COMMENT": "Grouped by shell and plane from TLE"
  }
]